OBJECT_NAME,OBJECT_ID,EPOCH,MEAN_MOTION,ECCENTRICITY,INCLINATION,RA_OF_ASC_NODE,ARG_OF_PERICENTER,MEAN_ANOMALY,EPHEMERIS_TYPE,CLASSIFICATION_TYPE,NORAD_CAT_ID,ELEMENT_SET_NO,REV_AT_EPOCH,BSTAR,MEAN_MOTION_DOT,MEAN_MOTION_DDOT
SKYSAT-C1,2016-040C,2026-07-08T15:25:51.015648,15.36672149,.00009892,96.9561,220.2029,9.6303,350.4961,0,U,41601,999,56116,.17748704E-3,.6281E-4,0
LAPAN-A3,2016-040E,2026-07-08T23:45:50.203296,15.33251558,.000842,97.1498,185.4219,303.2676,56.7760,0,U,41603,999,55815,.73179647E-4,.2278E-4,0
GAOFEN-3,2016-049A,2026-07-09T00:10:40.442592,14.42217646,.00017399,98.4020,197.4639,91.2174,268.9215,0,U,41727,999,52179,-.45707766E-4,-.194E-5,0
SKYSAT-C4,2016-058B,2026-07-08T20:16:59.574144,15.49287157,.00032554,96.9171,210.7187,127.7918,232.3630,0,U,41771,999,54882,.22326911E-3,.12121E-3,0
SKYSAT-C5,2016-058C,2026-07-08T22:45:11.847456,15.34224995,.00022731,97.0462,229.6183,173.8835,186.2437,0,U,41772,999,54708,.18593331E-3,.6085E-4,0
SKYSAT-C2,2016-058D,2026-07-08T23:51:39.410496,15.42580195,.00022198,97.0167,211.2736,17.2519,342.8804,0,U,41773,999,54841,.20101756E-3,.8655E-4,0
SKYSAT-C3,2016-058E,2026-07-08T22:07:52.419936,15.53498704,.0002103,96.9003,219.9438,133.9059,226.2370,0,U,41774,999,54948,.26954618E-3,.17034E-3,0
ALSAT-1B,2016-059C,2026-07-08T23:43:13.351872,14.72291687,.00098845,97.7758,197.8111,147.9283,212.2528,0,U,41785,999,52378,.60341356E-4,.334E-5,0
PATHFINDER 1,2016-059E,2026-07-08T22:52:15.390624,14.67688385,.00295076,97.8172,188.2474,134.7864,225.5749,0,U,41787,999,52290,.78882953E-4,.405E-5,0
SCATSAT 1,2016-059H,2026-07-08T18:53:21.237504,14.79576568,.00547405,98.1179,253.7752,177.0507,183.1037,0,U,41790,999,10478,.12792062E-3,.925E-5,0
GOKTURK 1A,2016-073A,2026-07-08T23:57:15.358752,14.62790682,.00014274,98.1220,84.3280,78.3594,281.7768,0,U,41875,999,51201,.63950019E-4,.28E-5,0
RESOURCESAT-2A,2016-074A,2026-07-08T23:01:59.602368,14.21607932,.00026996,98.7517,263.2857,42.0093,318.1291,0,U,41877,999,49739,.6627557E-4,.101E-5,0
CARTOSAT-2D,2017-008A,2026-07-08T23:01:31.944864,15.19252363,.00054054,97.4098,248.8571,156.5272,203.6211,0,U,41948,999,52088,.91230414E-4,.1856E-4,0
SENTINEL-2B,2017-013A,2026-07-08T22:56:16.519200,14.30813650,.00011992,98.5681,264.4227,90.9190,269.2130,0,U,42063,999,48775,-.10743673E-4,-.72E-6,0
CARTOSAT-2E,2017-036C,2026-07-08T21:52:06.078144,15.19220730,.00026533,97.4264,249.3545,215.8838,144.2218,0,U,42767,999,50144,.93708977E-4,.1905E-4,0
FORMOSAT-5,2017-049A,2026-07-08T21:56:27.359520,14.50906620,.00117649,98.2247,264.7408,22.7940,337.3775,0,U,42920,999,46982,.25259238E-4,.56E-6,0
SENTINEL-5P,2017-064A,2026-07-08T20:11:07.252224,14.19522581,.000109,98.7928,131.8187,91.8263,268.3038,0,U,42969,999,45263,.27035483E-4,.13E-6,0
SKYSAT-C11,2017-068A,2026-07-08T21:18:57.463776,15.59069230,.0000805,97.4370,339.6849,165.4827,194.6453,0,U,42987,999,48662,.28605745E-3,.22222E-3,0
SKYSAT-C10,2017-068B,2026-07-08T22:30:01.283904,15.35030713,.00013454,97.4524,327.0051,108.5919,251.5470,0,U,42988,999,48569,.21716341E-3,.7299E-4,0
SKYSAT-C9,2017-068C,2026-07-08T21:58:33.396384,15.42107438,.0009097,97.4443,328.1278,64.5964,295.6223,0,U,42989,999,48610,.21637147E-3,.918E-4,0
SKYSAT-C8,2017-068D,2026-07-08T22:34:23.685024,15.37407524,.00012242,97.4544,326.8920,99.6085,260.5298,0,U,42990,999,48565,.19481669E-3,.706E-4,0
SKYSAT-C7,2017-068E,2026-07-08T22:26:10.326336,15.37359307,.00062985,97.4552,327.8770,41.8557,318.3168,0,U,42991,999,48571,.19393402E-3,.702E-4,0
SKYSAT-C6,2017-068F,2026-07-08T22:21:11.158560,15.34096798,.00051476,97.4592,327.7547,104.3189,255.8626,0,U,42992,999,48565,.19222962E-3,.6263E-4,0
CARTOSAT-2F,2018-004A,2026-07-08T22:39:04.351104,15.19237786,.00022609,97.4779,249.3649,146.5662,213.5715,0,U,43111,999,47063,.88177452E-4,.1789E-4,0
GAOFEN-1 02,2018-031A,2026-07-08T23:38:47.135328,14.76464640,.00017969,98.0513,252.4501,320.6883,39.4196,0,U,43259,999,44591,-.1368611E-4,-.147E-5,0
GAOFEN-1 03,2018-031B,2026-07-08T23:07:11.424288,14.76456812,.00028945,98.0507,252.2844,32.1541,327.9844,0,U,43260,999,44590,.74645902E-4,.468E-5,0
GAOFEN-1 04,2018-031D,2026-07-08T22:32:15.202176,14.76465916,.00015409,98.0515,252.4537,59.1355,301.0006,0,U,43262,999,44589,.8309843E-4,.527E-5,0
SENTINEL-3B,2018-039A,2026-07-08T18:57:09.730080,14.26740836,.00010005,98.6239,257.0111,119.7937,240.3343,0,U,43437,999,42720,.38919138E-4,.51E-6,0
GAOFEN-5 01,2018-043A,2026-07-08T21:57:14.580576,14.60620684,.00024358,98.4584,161.9590,44.5719,315.5677,0,U,43461,999,43486,.55870927E-4,.223E-5,0
GAOFEN-6,2018-048A,2026-07-08T23:04:12.159840,14.76377878,.00121331,98.0957,252.6483,99.0275,261.2308,0,U,43484,999,43660,-.11794156E-4,-.135E-5,0
