SKYSAT-C1               
1 41601U 16040C   26189.64295157  .00006281  00000+0  17749-3 0  9995
2 41601  96.9561 220.2029 0000989   9.6303 350.4961 15.36672149561165
LAPAN-A3                
1 41603U 16040E   26189.99016439  .00002278  00000+0  73180-4 0  9993
2 41603  97.1498 185.4219 0008420 303.2676  56.7760 15.33251558558158
GAOFEN-3                
1 41727U 16049A   26190.00741253 -.00000194  00000+0 -45708-4 0  9994
2 41727  98.4020 197.4639 0001739  91.2174 268.9215 14.42217646521793
SKYSAT-C4               
1 41771U 16058B   26189.84513396  .00012121  00000+0  22327-3 0  9990
2 41771  96.9171 210.7187 0003255 127.7918 232.3630 15.49287157548826
SKYSAT-C5               
1 41772U 16058C   26189.94805379  .00006085  00000+0  18593-3 0  9999
2 41772  97.0462 229.6183 0002273 173.8835 186.2437 15.34224995547080
SKYSAT-C2               
1 41773U 16058D   26189.99420614  .00008655  00000+0  20102-3 0  9994
2 41773  97.0167 211.2736 0002219  17.2519 342.8804 15.42580195548416
SKYSAT-C3               
1 41774U 16058E   26189.92213449  .00017034  00000+0  26955-3 0  9997
2 41774  96.9003 219.9438 0002103 133.9059 226.2370 15.53498704549482
ALSAT-1B                
1 41785U 16059C   26189.98834898  .00000334  00000+0  60341-4 0  9996
2 41785  97.7758 197.8111 0009884 147.9283 212.2528 14.72291687523785
PATHFINDER 1            
1 41787U 16059E   26189.95295591  .00000405  00000+0  78883-4 0  9995
2 41787  97.8172 188.2474 0029507 134.7864 225.5749 14.67688385522901
SCATSAT 1               
1 41790U 16059H   26189.78705136  .00000925  00000+0  12792-3 0  9994
2 41790  98.1179 253.7752 0054740 177.0507 183.1037 14.79576568104787
GOKTURK 1A              
1 41875U 16073A   26189.99809443  .00000280  00000+0  63950-4 0  9990
2 41875  98.1220  84.3280 0001427  78.3594 281.7768 14.62790682512017
RESOURCESAT-2A          
1 41877U 16074A   26189.95971762  .00000101  00000+0  66276-4 0  9999
2 41877  98.7517 263.2857 0002699  42.0093 318.1291 14.21607932497395
CARTOSAT-2D             
1 41948U 17008A   26189.95939751  .00001856  00000+0  91230-4 0  9994
2 41948  97.4098 248.8571 0005405 156.5272 203.6211 15.19252363520887
SENTINEL-2B             
1 42063U 17013A   26189.95574675 -.00000072  00000+0 -10744-4 0  9991
2 42063  98.5681 264.4227 0001199  90.9190 269.2130 14.30813650487754
CARTOSAT-2E             
1 42767U 17036C   26189.91118146  .00001905  00000+0  93709-4 0  9996
2 42767  97.4264 249.3545 0002653 215.8838 144.2218 15.19220730501449
FORMOSAT-5              
1 42920U 17049A   26189.91420555  .00000056  00000+0  25259-4 0  9992
2 42920  98.2247 264.7408 0011764  22.7940 337.3775 14.50906620469822
SENTINEL-5P             
1 42969U 17064A   26189.84105616  .00000013  00000+0  27035-4 0  9999
2 42969  98.7928 131.8187 0001090  91.8263 268.3038 14.19522581452631
SKYSAT-C11              
1 42987U 17068A   26189.88816509  .00022222  00000+0  28606-3 0  9997
2 42987  97.4370 339.6849 0000805 165.4827 194.6453 15.59069230486628
SKYSAT-C10              
1 42988U 17068B   26189.93751486  .00007299  00000+0  21716-3 0  9998
2 42988  97.4524 327.0051 0001345 108.5919 251.5470 15.35030713485692
SKYSAT-C9               
1 42989U 17068C   26189.91566431  .00009180  00000+0  21637-3 0  9994
2 42989  97.4443 328.1278 0009097  64.5964 295.6223 15.42107438486108
SKYSAT-C8               
1 42990U 17068D   26189.94055191  .00007060  00000+0  19482-3 0  9995
2 42990  97.4544 326.8920 0001224  99.6085 260.5298 15.37407524485653
SKYSAT-C7               
1 42991U 17068E   26189.93484174  .00007020  00000+0  19393-3 0  9999
2 42991  97.4552 327.8770 0006298  41.8557 318.3168 15.37359307485716
SKYSAT-C6               
1 42992U 17068F   26189.93137915  .00006263  00000+0  19223-3 0  9998
2 42992  97.4592 327.7547 0005147 104.3189 255.8626 15.34096798485656
CARTOSAT-2F             
1 43111U 18004A   26189.94380036  .00001789  00000+0  88177-4 0  9991
2 43111  97.4779 249.3649 0002260 146.5662 213.5715 15.19237786470635
GAOFEN-1 02             
1 43259U 18031A   26189.98526777 -.00000147  00000+0 -13686-4 0  9994
2 43259  98.0513 252.4501 0001796 320.6883  39.4196 14.76464640445910
GAOFEN-1 03             
1 43260U 18031B   26189.96332667  .00000468  00000+0  74646-4 0  9994
2 43260  98.0507 252.2844 0002894  32.1541 327.9844 14.76456812445905
GAOFEN-1 04             
1 43262U 18031D   26189.93906484  .00000527  00000+0  83098-4 0  9994
2 43262  98.0515 252.4537 0001540  59.1355 301.0006 14.76465916445892
SENTINEL-3B             
1 43437U 18039A   26189.78969595  .00000051  00000+0  38919-4 0  9995
2 43437  98.6239 257.0111 0001000 119.7937 240.3343 14.26740836427200
GAOFEN-5 01             
1 43461U 18043A   26189.91475209  .00000223  00000+0  55871-4 0  9993
2 43461  98.4584 161.9590 0002435  44.5719 315.5677 14.60620684434869
GAOFEN-6                
1 43484U 18048A   26189.96125185 -.00000135  00000+0 -11794-4 0  9993
2 43484  98.0957 252.6483 0012133  99.0275 261.2308 14.76377878436604
